BEIDOU-3S IGSO-1S       
1 40549U 15019A   26177.69534973 -.00000170  00000+0  00000+0 0  9994
2 40549  49.1760 295.3462 0039049 191.6970 128.6573  1.00249401 41165
NAVSTAR 74 (USA 262)    
1 40730U 15033A   26177.69437855 -.00000031  00000+0  00000+0 0  9999
2 40730  53.9750 266.6943 0115145  30.2371 330.4696  2.00555882 80187
BEIDOU-3S M2S           
1 40748U 15037A   26176.91454553 -.00000104  00000+0  00000+0 0  9991
2 40748  54.8627 301.7450 0008580 258.5842 101.3122  1.86232105 74281
BEIDOU-3S M1S           
1 40749U 15037B   26177.12087142 -.00000103  00000+0  00000+0 0  9991
2 40749  54.8590 301.7263 0003237  62.2861 297.7397  1.86255003 74295
GSAT0206 (GALILEO 10)   
1 40890U 15045B   26175.49628500  .00000051  00000+0  00000+0 0  9995
2 40890  54.9433 221.4024 0001685 336.0482  24.0274  1.70473861 67168
BEIDOU-3S IGSO-2S       
1 40938U 15053A   26177.68456693 -.00000116  00000+0  00000+0 0  9995
2 40938  49.2053 258.6677 0065522 192.9538 164.2588  1.00257789 39440
NAVSTAR 75 (USA 265)    
1 41019U 15062A   26177.75006963 -.00000080  00000+0  00000+0 0  9995
2 41019  56.9659  30.4428 0112188 230.9710 128.0791  2.00567519 78021
GSAT-15                 
1 41028U 15065A   26178.46830980 -.00000246  00000+0  00000+0 0  9995
2 41028   0.0482 263.4087 0004603 173.8537 100.4260  1.00270896 38904
GSAT0209 (GALILEO 12)   
1 41174U 15079A   26176.25098990 -.00000038  00000+0  00000+0 0  9993
2 41174  55.8320 101.0407 0005047 349.0522  10.9102  1.70473764 64918
GSAT0208 (GALILEO 11)   
1 41175U 15079B   26177.05790245 -.00000039  00000+0  00000+0 0  9996
2 41175  55.8311 101.0154 0004595 354.0123   5.9555  1.70473681 65340
IRNSS-1E                
1 41241U 16003A   26176.59836588 -.00000319  00000+0  00000+0 0  9998
2 41241  33.2517  59.6282 0019062 179.1130   2.2203  1.00274592 38164
NAVSTAR 76 (USA 266)    
1 41328U 16007A   26177.34308400 -.00000066  00000+0  00000+0 0  9998
2 41328  55.5293  89.0967 0095637 247.1706 111.8201  2.00551441 76026
COSMOS 2514 [GLONASS-M] 
1 41330U 16008A   26177.67036023 -.00000084  00000+0  00000+0 0  9997
2 41330  65.0155 312.6811 0011642 199.0103 160.9356  2.13102793 80820
BEIDOU-2 IGSO-6         
1 41434U 16021A   26177.11016981 -.00000145  00000+0  00000+0 0  9995
2 41434  60.2385  37.9495 0057558 231.0163 137.2672  1.00258926 37578
IRNSS-1G                
1 41469U 16027A   26178.46775734 -.00000327  00000+0  00000+0 0  9998
2 41469   5.2201  97.2368 0005811   4.5579 111.5347  1.00282460 37281
GSAT0211 (GALILEO 14)   
1 41549U 16030A   26178.35493910  .00000067  00000+0  00000+0 0  9992
2 41549  55.0928 221.4150 0003113 320.4924  39.5806  1.70474008 62843
GSAT0210 (GALILEO 13)   
1 41550U 16030B   26176.26585571  .00000056  00000+0  00000+0 0  9995
2 41550  55.0912 221.4705 0008659 257.5264 102.4641  1.70473937 62804
BEIDOU-2 G7             
1 41586U 16037A   26178.56225278 -.00000343  00000+0  00000+0 0  9991
2 41586   1.7458  69.4145 0006856   1.6985 157.5247  1.00272110  6993
EUTELSAT 117 WEST B     
1 41589U 16038B   26178.49794604  .00000000  00000+0  00000+0 0  9990
2 41589   0.0081 151.6791 0000293  94.4443  91.7661  1.00271818 36760
GSAT0207 (GALILEO 15)   
1 41859U 16069A   26177.71738502 -.00000038  00000+0  00000+0 0  9995
2 41859  55.5042 100.8225 0005006 333.0982  26.8500  1.70473700 59562
GSAT0212 (GALILEO 16)   
1 41860U 16069B   26178.15742112 -.00000037  00000+0  00000+0 0  9997
2 41860  55.5020 100.8054 0004388  12.7020 347.2841  1.70473636 59821
GSAT0213 (GALILEO 17)   
1 41861U 16069C   26176.17825865 -.00000039  00000+0  00000+0 0  9997
2 41861  55.5032 100.8681 0004629 315.3374  44.5989  1.70474298 59659
GSAT0214 (GALILEO 18)   
1 41862U 16069D   26172.80498560 -.00000023  00000+0  00000+0 0  9995
2 41862  55.5000 100.9540 0003849 321.2487  38.7039  1.70473560 59724
SES-15                  
1 42709U 17026A   26178.42427005  .00000071  00000+0  00000+0 0  9992
2 42709   0.0203 333.7086 0001081 157.7213 167.6801  1.00273031  7536
QZS-2 (MICHIBIKI-2)     
1 42738U 17028A   26178.49488949 -.00000130  00000+0  00000+0 0  9994
2 42738  39.4116 243.0027 0758985 269.3731  83.4413  1.00281278  7730
QZS-3 (MICHIBIKI-3)     
1 42917U 17048A   26178.55669772 -.00000336  00000+0  00000+0 0  9995
2 42917   0.0691 146.6373 0002299 306.4781 150.0087  1.00271709 32364
COSMOS 2522 [GLONASS-M] 
1 42939U 17055A   26175.16181676  .00000104  00000+0  00000+0 0  9995
2 42939  64.0776 191.6387 0008409 235.5259 124.4452  2.13101107 68121
QZS-4 (MICHIBIKI-4)     
1 42965U 17062A   26178.33281818 -.00000350  00000+0  00000+0 0  9997
2 42965  40.1035 343.3559 0746715 268.2655 281.5675  1.00296711 31901
BEIDOU-3 M1             
1 43001U 17069A   26177.26129809 -.00000086  00000+0  00000+0 0  9994
2 43001  56.7000  62.7851 0009932 326.5159  33.4640  1.86231403 58776
BEIDOU-3 M2             
1 43002U 17069B   26177.20007009 -.00000086  00000+0  00000+0 0  9996
2 43002  56.6993  62.8231 0008922 352.8542   7.1754  1.86230727 58767
GSAT0215 (GALILEO 19)   
1 43055U 17079A   26177.40088376  .00000063  00000+0  00000+0 0  9997
2 43055  55.0715 221.2530 0003507 265.2827  94.7697  1.70474651 53144
